[{"ORDINAL":"1","COMMENT":"GENERATED VIA SPACETRACK.ORG API","ORIGINATOR":"JSPOC","NORAD_CAT_ID":"38514","OBJECT_NAME":"FENGYUN 1C DEB","OBJECT_TYPE":"DEBRIS","CLASSIFICATION_TYPE":"U","INTLDES":"14033","EPOCH":"2014-12-04 10:35:05","EPOCH_MICROSECONDS":"811935","MEAN_MOTION":"13.61370601","ECCENTRICITY":"0.0440601","INCLINATION":"98.0832","RA_OF_ASC_NODE":"202.6105","ARG_OF_PERICENTER":"201.2589","MEAN_ANOMALY":"157.02","EPHEMERIS_TYPE":"0","ELEMENT_SET_NO":"99","REV_AT_EPOCH":"35394","BSTAR":"0.0051361","MEAN_MOTION_DOT":"7.474e-05","MEAN_MOTION_DDOT":"0","FILE":"1788228","TLE_LINE0":"0 FENGYUN 1C DEB","TLE_LINE1":"1 38514U 14033    14338.44103949  .00007474  00000-0  51361-2 0   996","TLE_LINE2":"2 38514 098.0832 202.6105 0440601 201.2589 157.0200 13.61370601353948","OBJECT_ID":"2014-033","OBJECT_NUMBER":"38514"},{"ORDINAL":"2","COMMENT":"GENERATED VIA SPACETRACK.ORG API","ORIGINATOR":"JSPOC","NORAD_CAT_ID":"39619","OBJECT_NAME":"ARIANE 5 DEB (SYLDA)","OBJECT_TYPE":"DEBRIS","CLASSIFICATION_TYPE":"U","INTLDES":"14011D","EPOCH":"2014-12-04 09:39:54","EPOCH_MICROSECONDS":"324576","MEAN_MOTION":"2.49070247","ECCENTRICITY":"0.713425","INCLINATION":"2.633","RA_OF_ASC_NODE":"233.2339","ARG_OF_PERICENTER":"32.4063","MEAN_ANOMALY":"356.025","EPHEMERIS_TYPE":"0","ELEMENT_SET_NO":"255","REV_AT_EPOCH":"598","BSTAR":"0.017378","MEAN_MOTION_DOT":"0.0017857","MEAN_MOTION_DDOT":"0","FILE":"1788169","TLE_LINE0":"0 ARIANE 5 DEB (SYLDA)","TLE_LINE1":"1 39619U 14011D   14338.40271209  .00178570  00000-0  17378-1 0  2559","TLE_LINE2":"2 39619 002.6330 233.2339 7134250 032.4063 356.0250 02.49070247  5987","OBJECT_ID":"2014-011D","OBJECT_NUMBER":"39619"},{"ORDINAL":"1","COMMENT":"GENERATED VIA SPACETRACK.ORG API","ORIGINATOR":"JSPOC","NORAD_CAT_ID":"39619","OBJECT_NAME":"ARIANE 5 DEB (SYLDA)","OBJECT_TYPE":"DEBRIS","CLASSIFICATION_TYPE":"U","INTLDES":"14011D","EPOCH":"2014-12-04 09:39:47","EPOCH_MICROSECONDS":"854080","MEAN_MOTION":"2.49047129","ECCENTRICITY":"0.7133429","INCLINATION":"2.6326","RA_OF_ASC_NODE":"232.897","ARG_OF_PERICENTER":"32.7483","MEAN_ANOMALY":"355.9671","EPHEMERIS_TYPE":"0","ELEMENT_SET_NO":"256","REV_AT_EPOCH":"597","BSTAR":"0.020164","MEAN_MOTION_DOT":"0.0019456","MEAN_MOTION_DDOT":"0","FILE":"1788295","TLE_LINE0":"0 ARIANE 5 DEB (SYLDA)","TLE_LINE1":"1 39619U 14011D   14338.40263720  .00194560  00000-0  20164-1 0  2563","TLE_LINE2":"2 39619 002.6326 232.8970 7133429 032.7483 355.9671 02.49047129  5971","OBJECT_ID":"2014-011D","OBJECT_NUMBER":"39619"},{"ORDINAL":"1","COMMENT":"GENERATED VIA SPACETRACK.ORG API","ORIGINATOR":"JSPOC","NORAD_CAT_ID":"39628","OBJECT_NAME":"CZ-2C DEB","OBJECT_TYPE":"DEBRIS","CLASSIFICATION_TYPE":"U","INTLDES":"14014E","EPOCH":"2014-12-04 09:32:36","EPOCH_MICROSECONDS":"572064","MEAN_MOTION":"14.49065749","ECCENTRICITY":"0.0111044","INCLINATION":"98.4697","RA_OF_ASC_NODE":"33.3142","ARG_OF_PERICENTER":"191.4368","MEAN_ANOMALY":"168.43","EPHEMERIS_TYPE":"0","ELEMENT_SET_NO":"181","REV_AT_EPOCH":"3593","BSTAR":"0.0021873","MEAN_MOTION_DOT":"8.944e-05","MEAN_MOTION_DDOT":"0","FILE":"1788396","TLE_LINE0":"0 CZ-2C DEB","TLE_LINE1":"1 39628U 14014E   14338.39764551  .00008944  00000-0  21873-2 0  1818","TLE_LINE2":"2 39628 098.4697 033.3142 0111044 191.4368 168.4300 14.49065749 35933","OBJECT_ID":"2014-014E","OBJECT_NUMBER":"39628"},{"ORDINAL":"2","COMMENT":"GENERATED VIA SPACETRACK.ORG API","ORIGINATOR":"JSPOC","NORAD_CAT_ID":"40308","OBJECT_NAME":"CZ-2C DEB","OBJECT_TYPE":"DEBRIS","CLASSIFICATION_TYPE":"U","INTLDES":"14071D","EPOCH":"2014-12-04 08:38:21","EPOCH_MICROSECONDS":"273215","MEAN_MOTION":"15.61998297","ECCENTRICITY":"0.009556","INCLINATION":"97.5103","RA_OF_ASC_NODE":"284.2674","ARG_OF_PERICENTER":"226.7142","MEAN_ANOMALY":"132.6076","EPHEMERIS_TYPE":"0","ELEMENT_SET_NO":"41","REV_AT_EPOCH":"303","BSTAR":"0.0054738","MEAN_MOTION_DOT":"0.00637906","MEAN_MOTION_DDOT":"0","FILE":"1788134","TLE_LINE0":"0 CZ-2C DEB","TLE_LINE1":"1 40308U 14071D   14338.35996844  .00637906  00000-0  54738-2 0   413","TLE_LINE2":"2 40308 097.5103 284.2674 0095560 226.7142 132.6076 15.61998297  3032","OBJECT_ID":"2014-071D","OBJECT_NUMBER":"40308"},{"ORDINAL":"2","COMMENT":"GENERATED VIA SPACETRACK.ORG API","ORIGINATOR":"JSPOC","NORAD_CAT_ID":"40307","OBJECT_NAME":"CZ-2C DEB","OBJECT_TYPE":"DEBRIS","CLASSIFICATION_TYPE":"U","INTLDES":"14071C","EPOCH":"2014-12-04 08:02:16","EPOCH_MICROSECONDS":"180799","MEAN_MOTION":"15.68776146","ECCENTRICITY":"0.008558","INCLINATION":"97.1035","RA_OF_ASC_NODE":"283.2679","ARG_OF_PERICENTER":"223.0865","MEAN_ANOMALY":"136.3665","EPHEMERIS_TYPE":"0","ELEMENT_SET_NO":"51","REV_AT_EPOCH":"303","BSTAR":"0.0079924","MEAN_MOTION_DOT":"0.01263709","MEAN_MOTION_DDOT":"0","FILE":"1788024","TLE_LINE0":"0 CZ-2C DEB","TLE_LINE1":"1 40307U 14071C   14338.33490950  .01263709  00000-0  79924-2 0   519","TLE_LINE2":"2 40307 097.1035 283.2679 0085580 223.0865 136.3665 15.68776146  3037","OBJECT_ID":"2014-071C","OBJECT_NUMBER":"40307"},{"ORDINAL":"2","COMMENT":"GENERATED VIA SPACETRACK.ORG API","ORIGINATOR":"JSPOC","NORAD_CAT_ID":"39615","OBJECT_NAME":"BREEZE-M DEB (TANK)","OBJECT_TYPE":"DEBRIS","CLASSIFICATION_TYPE":"U","INTLDES":"14010D","EPOCH":"2014-12-04 05:44:01","EPOCH_MICROSECONDS":"910399","MEAN_MOTION":"2.28282697","ECCENTRICITY":"0.7285874","INCLINATION":"48.422","RA_OF_ASC_NODE":"98.4144","ARG_OF_PERICENTER":"64.051","MEAN_ANOMALY":"351.536","EPHEMERIS_TYPE":"0","ELEMENT_SET_NO":"162","REV_AT_EPOCH":"592","BSTAR":"0.001126","MEAN_MOTION_DOT":"5.558e-05","MEAN_MOTION_DDOT":"0","FILE":"1788213","TLE_LINE0":"0 BREEZE-M DEB (TANK)","TLE_LINE1":"1 39615U 14010D   14338.23891100  .00005558  00000-0  11260-2 0  1620","TLE_LINE2":"2 39615 048.4220 098.4144 7285874 064.0510 351.5360 02.28282697  5928","OBJECT_ID":"2014-010D","OBJECT_NUMBER":"39615"},{"ORDINAL":"1","COMMENT":"GENERATED VIA SPACETRACK.ORG API","ORIGINATOR":"JSPOC","NORAD_CAT_ID":"39615","OBJECT_NAME":"BREEZE-M DEB (TANK)","OBJECT_TYPE":"DEBRIS","CLASSIFICATION_TYPE":"U","INTLDES":"14010D","EPOCH":"2014-12-04 05:43:58","EPOCH_MICROSECONDS":"941696","MEAN_MOTION":"2.28279823","ECCENTRICITY":"0.7286257","INCLINATION":"48.4249","RA_OF_ASC_NODE":"98.4294","ARG_OF_PERICENTER":"64.0471","MEAN_ANOMALY":"351.5254","EPHEMERIS_TYPE":"0","ELEMENT_SET_NO":"163","REV_AT_EPOCH":"592","BSTAR":"0.0011421","MEAN_MOTION_DOT":"5.836e-05","MEAN_MOTION_DDOT":"0","FILE":"1788364","TLE_LINE0":"0 BREEZE-M DEB (TANK)","TLE_LINE1":"1 39615U 14010D   14338.23887664  .00005836  00000-0  11421-2 0  1639","TLE_LINE2":"2 39615 048.4249 098.4294 7286257 064.0471 351.5254 02.28279823  5926","OBJECT_ID":"2014-010D","OBJECT_NUMBER":"39615"},{"ORDINAL":"2","COMMENT":"GENERATED VIA SPACETRACK.ORG API","ORIGINATOR":"JSPOC","NORAD_CAT_ID":"40279","OBJECT_NAME":"BREEZE-M DEB (TANK)","OBJECT_TYPE":"DEBRIS","CLASSIFICATION_TYPE":"U","INTLDES":"14064C","EPOCH":"2014-12-04 05:06:10","EPOCH_MICROSECONDS":"971935","MEAN_MOTION":"2.14222125","ECCENTRICITY":"0.7361429","INCLINATION":"49.459","RA_OF_ASC_NODE":"255.5582","ARG_OF_PERICENTER":"9.0527","MEAN_ANOMALY":"358.9957","EPHEMERIS_TYPE":"0","ELEMENT_SET_NO":"32","REV_AT_EPOCH":"93","BSTAR":"0.00269","MEAN_MOTION_DOT":"2.3e-05","MEAN_MOTION_DDOT":"0","FILE":"1788117","TLE_LINE0":"0 BREEZE-M DEB (TANK)","TLE_LINE1":"1 40279U 14064C   14338.21262699  .00002300  00000-0  26900-2 0   325","TLE_LINE2":"2 40279 049.4590 255.5582 7361429 009.0527 358.9957 02.14222125   931","OBJECT_ID":"2014-064C","OBJECT_NUMBER":"40279"},{"ORDINAL":"1","COMMENT":"GENERATED VIA SPACETRACK.ORG API","ORIGINATOR":"JSPOC","NORAD_CAT_ID":"40113","OBJECT_NAME":"CZ-4C DEB","OBJECT_TYPE":"DEBRIS","CLASSIFICATION_TYPE":"U","INTLDES":"14047E","EPOCH":"2014-12-04 04:30:34","EPOCH_MICROSECONDS":"261920","MEAN_MOTION":"13.43923158","ECCENTRICITY":"0.0020451","INCLINATION":"63.4217","RA_OF_ASC_NODE":"52.1847","ARG_OF_PERICENTER":"23.6731","MEAN_ANOMALY":"336.5251","EPHEMERIS_TYPE":"0","ELEMENT_SET_NO":"80","REV_AT_EPOCH":"1571","BSTAR":"0","MEAN_MOTION_DOT":"-9e-07","MEAN_MOTION_DDOT":"0","FILE":"1787997","TLE_LINE0":"0 CZ-4C DEB","TLE_LINE1":"1 40113U 14047E   14338.18789655 -.00000090  00000-0  00000+0 0   803","TLE_LINE2":"2 40113 063.4217 052.1847 0020451 023.6731 336.5251 13.43923158 15713","OBJECT_ID":"2014-047E","OBJECT_NUMBER":"40113"},{"ORDINAL":"3","COMMENT":"GENERATED VIA SPACETRACK.ORG API","ORIGINATOR":"JSPOC","NORAD_CAT_ID":"40307","OBJECT_NAME":"CZ-2C DEB","OBJECT_TYPE":"DEBRIS","CLASSIFICATION_TYPE":"U","INTLDES":"14071C","EPOCH":"2014-12-04 03:26:40","EPOCH_MICROSECONDS":"130591","MEAN_MOTION":"15.68351177","ECCENTRICITY":"0.0086248","INCLINATION":"97.1036","RA_OF_ASC_NODE":"283.0739","ARG_OF_PERICENTER":"223.7329","MEAN_ANOMALY":"135.7066","EPHEMERIS_TYPE":"0","ELEMENT_SET_NO":"50","REV_AT_EPOCH":"300","BSTAR":"0.007994","MEAN_MOTION_DOT":"0.01241774","MEAN_MOTION_DDOT":"0","FILE":"1787993","TLE_LINE0":"0 CZ-2C DEB","TLE_LINE1":"1 40307U 14071C   14338.14352003  .01241774  00000-0  79940-2 0   509","TLE_LINE2":"2 40307 097.1036 283.0739 0086248 223.7329 135.7066 15.68351177  3005","OBJECT_ID":"2014-071C","OBJECT_NUMBER":"40307"},{"ORDINAL":"3","COMMENT":"GENERATED VIA SPACETRACK.ORG API","ORIGINATOR":"JSPOC","NORAD_CAT_ID":"40308","OBJECT_NAME":"CZ-2C DEB","OBJECT_TYPE":"DEBRIS","CLASSIFICATION_TYPE":"U","INTLDES":"14071D","EPOCH":"2014-12-04 02:29:17","EPOCH_MICROSECONDS":"111328","MEAN_MOTION":"15.61716896","ECCENTRICITY":"0.0096262","INCLINATION":"97.5109","RA_OF_ASC_NODE":"283.9935","ARG_OF_PERICENTER":"227.0476","MEAN_ANOMALY":"132.2433","EPHEMERIS_TYPE":"0","ELEMENT_SET_NO":"40","REV_AT_EPOCH":"299","BSTAR":"0.0055417","MEAN_MOTION_DOT":"0.00640439","MEAN_MOTION_DDOT":"0","FILE":"1787994","TLE_LINE0":"0 CZ-2C DEB","TLE_LINE1":"1 40308U 14071D   14338.10367027  .00640439  00000-0  55417-2 0   400","TLE_LINE2":"2 40308 097.5109 283.9935 0096262 227.0476 132.2433 15.61716896  2998","OBJECT_ID":"2014-071D","OBJECT_NUMBER":"40308"}]